IRIDIUM 57 [-]          
1 25273U 98019B   24076.27700600  .00000397  00000+0  13229-3 0  9995
2 25273  86.4003 337.0479 0002133  87.0260 273.1181 14.35117864359096
IRIDIUM 63 [-]          
1 25286U 98021B   24076.61432977  .00000456  00000+0  15138-3 0  9996
2 25286  86.3926 273.8014 0001946  85.3159 274.8260 14.35635665358172
IRIDIUM 69 [-]          
1 25319U 98026A   24076.60622959  .00000534  00000+0  16382-3 0  9997
2 25319  86.3933 288.4812 0004391  89.8710 270.2992 14.39831127357192
IRIDIUM 71 [-]          
1 25320U 98026B   24076.62678837  .00000555  00000+0  16953-3 0  9994
2 25320  86.3922 283.2499 0003520 122.5933 237.5606 14.40157182357968
IRIDIUM 73 [-]          
1 25344U 98032C   24076.51315094  .00000843  00000+0  21116-3 0  9995
2 25344  86.4397 240.8375 0002748  92.7210 267.4309 14.50345083364195
IRIDIUM 82 [-]          
1 25467U 98051A   24076.68964200  .00008210  00000+0  43880-3 0  9997
2 25467  86.3867 329.5554 0134148 199.3846 160.2264 15.07379957354543
IRIDIUM 2 [-]           
1 25527U 98066A   24076.27903590  .00066874  00000+0  83061-3 0  9995
2 25527  85.5155   3.0841 0004242  62.8675 297.3020 15.59748569393326
